NOAA 15                 
1 25338U 98030A   22354.54786044  .00000172  00000+0  89747-4 0  9993
2 25338  98.6263  21.4879 0011364 113.2557 246.9821 14.26210297279797
DMSP 5D-3 F15 (USA 147) 
1 25991U 99067A   22353.89499028  .00000228  00000+0  13748-3 0  9998
2 25991  99.0647 348.7637 0010530  28.3991  87.4726 14.16613006190048
DMSP 5D-3 F16 (USA 172) 
1 28054U 03048A   22354.54506628  .00000136  00000+0  96135-4 0  9993
2 28054  99.0025 346.4497 0007775 146.0603  18.5515 14.13717575989315
NOAA 18                 
1 28654U 05018A   22354.46751448  .00000223  00000+0  14376-3 0  9994
2 28654  98.9313  64.5846 0014672 162.5398 197.6281 14.12824768906335
METEOSAT-9 (MSG-2)      
1 28912U 05049B   22353.89793920  .00000150  00000+0  00000+0 0  9996
2 28912   6.4382  65.0599 0000629 215.2908 177.0196  1.00271679 62298
EWS-G1 (GOES 13)        
1 29155U 06018A   22353.82940325  .00000063  00000+0  00000+0 0  9992
2 29155   1.0491  93.3474 0006300 152.8135 202.3271  1.00275480 30583
DMSP 5D-3 F17 (USA 191) 
1 29522U 06050A   22354.51692161  .00000179  00000+0  11669-3 0  9990
2 29522  98.7608   6.0364 0010842  91.9456 268.2959 14.14150077832204
FENGYUN 3A              
1 32958U 08026A   22354.44170971  .00000136  00000+0  85557-4 0  9995
2 32958  98.5306 309.7127 0008256 199.1286 160.9582 14.18772381754702
FENGYUN 2E              
1 33463U 08066A   22354.12143020 -.00000184  00000+0  00000+0 0  9990
2 33463   6.3178  64.1890 0001038 262.7788 252.3738  1.00271992 51306
NOAA 19                 
1 33591U 09005A   22354.56098241  .00000209  00000+0  13748-3 0  9992
2 33591  99.1265  32.4143 0014252  29.0088 331.1873 14.12654045714722
GOES 14                 
1 35491U 09033A   22354.51363266 -.00000067  00000+0  00000+0 0  9997
2 35491   0.1469 256.5216 0017644 328.8547 304.3830  1.00270157 49377
METEOR-M 1              
1 35865U 09049A   22354.46011006  .00000130  00000+0  77564-4 0  9999
2 35865  98.5552 319.1688 0003230  58.5827 301.5667 14.22389330688120
DMSP 5D-3 F18 (USA 210) 
1 35951U 09057A   22354.49338526  .00000300  00000+0  18198-3 0  9992
2 35951  98.7460 329.5092 0010117 279.0546  80.9482 14.13607743679393
GOES 15                 
1 36411U 10008A   22354.43050666  .00000078  00000+0  00000+0 0  9993
2 36411   0.1022 285.5373 0003620 263.4260 287.7039  1.00258423 46875
COMS 1                  
1 36744U 10032A   22354.41653088 -.00000318  00000+0  00000+0 0  9992
2 36744   1.5457  91.5687 0000622 175.6634  99.8779  1.00270717 45874
FENGYUN 3B              
1 37214U 10059A   22353.85086428  .00000044  00000+0  47315-4 0  9999
2 37214  99.0918   3.1188 0022015 190.0922 169.9814 14.14279430627164
SUOMI NPP               
1 37849U 11061A   22354.42859400  .00000106  00000+0  71015-4 0  9992
2 37849  98.7520 290.5380 0001306  93.7327   6.8655 14.19527466577578
FENGYUN 2F              
1 38049U 12002A   22354.27417837 -.00000332  00000+0  00000+0 0  9991
2 38049   4.2454  78.2359 0002855 273.6328 307.5838  1.00259495 40104
METEOSAT-10 (MSG-3)     
1 38552U 12035B   22354.32091090  .00000087  00000+0  00000+0 0  9997
2 38552   1.8294  50.1516 0000971 180.3773 343.3665  1.00270149 38435
METOP-B                 
1 38771U 12049A   22354.44206942  .00000144  00000+0  85810-4 0  9993
2 38771  98.7063  51.5730 0001010 132.9484 237.5849 14.21486678532156
FENGYUN 3C              
1 39260U 13052A   22353.90504398  .00000084  00000+0  63384-4 0  9993
2 39260  98.4399  12.4993 0012210  99.4777 260.7773 14.15967886478164
METEOR-M 2              
1 40069U 14037A   22354.17984696  .00000025  00000+0  30713-4 0  9994
2 40069  98.4263   3.4594 0006385 134.9433 225.2271 14.20730497438235
HIMAWARI-8              
1 40267U 14060A   22353.86577278 -.00000248  00000+0  00000+0 0  9998
2 40267   0.0158 167.0749 0000907 117.9313 255.7760  1.00272809 30071
FENGYUN 2G              
1 40367U 14090A   22353.83689944 -.00000272  00000+0  00000+0 0  9990
2 40367   2.3985  87.5679 0002069 226.5209 174.7591  1.00261707 29216
METEOSAT-11 (MSG-4)     
1 40732U 15034A   22354.31925477  .00000023  00000+0  00000+0 0  9996
2 40732   0.4715 355.6446 0000513 102.0984 106.0890  1.00273219 27223
ELEKTRO-L 2             
1 41105U 15074A   22354.02938397 -.00000090  00000+0  00000+0 0  9993
2 41105   3.4539  85.9367 0002732 150.1097 208.6908  1.00272155 25724
HIMAWARI-9              
1 41836U 16064A   22353.98859078 -.00000247  00000+0  00000+0 0  9990
2 41836   0.0328 221.8997 0001282  93.2731 270.0410  1.00271680 22512
GOES 16                 
1 41866U 16071A   22353.87388167 -.00000221  00000+0  00000+0 0  9997
2 41866   0.0783 253.9253 0000623  54.7544  19.1835  1.00271003 22324
FENGYUN 4A              
1 41882U 16077A   22353.90970648 -.00000303  00000+0  00000+0 0  9997
2 41882   0.0334 331.7214 0005550  73.2347 115.6918  1.00272005 22199
CYGFM05                 
1 41884U 16078A   22353.85062492  .00004715  00000+0  23022-3 0  9996
2 41884  34.9550 126.2341 0015112 312.0688  47.8739 15.17574797333055
CYGFM04                 
1 41885U 16078B   22354.03353942  .00004962  00000+0  23847-3 0  9990
2 41885  34.9485 113.2637 0013394 331.5976  28.4006 15.18132354333190
CYGFM02                 
1 41886U 16078C   22354.41418075  .00005065  00000+0  24300-3 0  9992
2 41886  34.9578 113.1548 0014044 328.6755  31.3120 15.18178880333249
CYGFM01                 
1 41887U 16078D   22354.53456223  .00005143  00000+0  25232-3 0  9995
2 41887  34.9518 124.6621 0015481 317.1473  42.8032 15.17377893333129
CYGFM08                 
1 41888U 16078E   22354.52599825  .00005364  00000+0  25946-3 0  9998
2 41888  34.9492 116.4694 0014519 329.9256  30.0622 15.17875778333175
CYGFM07                 
1 41890U 16078G   22353.66200605  .00005186  00000+0  24934-3 0  9998
2 41890  34.9511 115.3705 0012877 326.8816  33.1090 15.18114321333134
CYGFM03                 
1 41891U 16078H   22353.72631037  .00005507  00000+0  26468-3 0  9994
2 41891  34.9542 115.4856 0012408 325.3078  34.6824 15.18118622332982
FENGYUN 3D              
1 43010U 17072A   22354.12581160  .00000131  00000+0  84149-4 0  9999
2 43010  98.8387 297.9762 0002337  93.6283 266.5169 14.19120029264108
NOAA 20                 
1 43013U 17073A   22354.51374483  .00000087  00000+0  62118-4 0  9996
2 43013  98.7359 290.2915 0000690 111.5229 248.6021 14.19537320263625
GOES 17                 
1 43226U 18022A   22354.28179243  .00000125  00000+0  00000+0 0  9998
2 43226   0.0447 155.2186 0000186 130.4133 127.3295  1.00270596 17650
FENGYUN 2H              
1 43491U 18050A   22354.40668125 -.00000102  00000+0  00000+0 0  9995
2 43491   1.6181  93.8384 0002398  69.9244 150.7048  1.00275081 16726
METOP-C                 
1 43689U 18087A   22354.40623709  .00000147  00000+0  87350-4 0  9999
2 43689  98.7108  51.5836 0002768 201.3522 158.7540 14.21492558213727
GEO-KOMPSAT-2A          
1 43823U 18100A   22353.98615017 -.00000316  00000+0  00000+0 0  9991
2 43823   0.0481 147.1632 0000499 323.4392 101.2417  1.00271150 14870
METEOR-M2 2             
1 44387U 19038A   22354.17815392  .00000066  00000+0  48326-4 0  9997
2 44387  98.7502 313.7019 0002339  89.9447 270.2004 14.23735710179837
FENGYUN 3E              
1 49008U 21062A   22354.21474354  .00000003  00000+0  21876-4 0  9998
2 49008  98.7171 353.2986 0002169 145.0442 215.0884 14.19749210 75671
GOES 18                 
1 51850U 22021A   22354.42444059  .00000123  00000+0  00000+0 0  9998
2 51850   0.0437 171.2722 0000946  82.9050 210.6858  1.00270542  3026
NOAA 21 (JPSS-2)        
1 54234U 22150A   22354.53166538  .00000123  00000+0  78855-4 0  9993
2 54234  98.6999 290.4446 0001097  79.2847 280.8453 14.19576759  5709
METEOSAT-12             
1 54743U 22170C   22353.31524981 -.00000002  00000+0  00000+0 0  9994
2 54743   5.5504 217.8990 7131836 181.4542 110.3708  2.25104636   115
